C/2014 Q3 Borisov                              2014 11 17.1446  1.649084       0.940829  47.3257  63.1377  89.8693  -0.5  20.0
C/2014 Q6 PANSTARRS                            2015 01 06.3403  4.217342       0.999067   2.4989 326.5572  49.8059   9.5   4.0
C/2014 R1 Borisov                              2014 11 18.0978  1.352410       0.992403  55.7912 104.0229   9.9094   6.5   8.8
C/2014 R3 PANSTARRS                            2016 08 08.6384  7.277349       0.998808 113.4653 334.0929  90.8766   6.5   4.0
C/2014 R4 Gibbs                                2014 10 19.7857  1.819608       0.997737 180.7398 279.5762  42.3722  13.0   4.0
P/2014 R5 Lemmon-PANSTARRS                     2022 08 19.7427  2.382789       0.412860 213.6931 126.5457   1.0882  15.0   4.0
C/2014 S1 PANSTARRS                            2013 10 29.6956  8.126553       1.003039 288.7193 352.6527 123.7536   7.0   4.0
C/2014 S2 PANSTARRS                            2015 12 09.2324  2.083655       0.988034  87.3962   8.0723  64.4317  10.0   4.0
C/2014 S3 PANSTARRS                            2014 08 12.5614  2.042664       0.976128 293.0617 356.1171 169.3276  17.0   4.0
C/2014 TG64 Catalina                           2014 05 26.4266  3.225187       0.781976 294.5404  50.2943  22.2936  13.0   4.0
P/2014 U2 Kowalski                             2019 10 11.4243  1.116456       0.615383  37.6271 354.2382   7.2808  19.5   4.0
C/2014 U3 Kowalski                             2014 09 04.3808  2.550644       0.997294  51.2539 163.5971 152.9345  14.5   4.0
P/2014 U4 PANSTARRS                            2021 02 13.6661  1.870789       0.465889 347.8485  12.0188   6.4365  18.0   4.0
P/2014 V1 PANSTARRS                            2015 01 20.8621  2.559794       0.533240 177.5488 166.2215  22.4906  14.0   4.0
P/2014 W1 PANSTARRS                            2023 12 21.8365  2.723265       0.389109 152.4323 246.2413   8.8417  15.5   4.0
C/2014 W2 PANSTARRS                            2016 03 09.2693  2.670807       0.996057  84.9467  69.9614  82.0265   7.5   4.0
C/2014 W3 PANSTARRS                            2014 02 26.8266  6.062177       1.005588 158.8811 286.4518  90.1600   8.5   4.0
P/2014 W4 PANSTARRS                            2016 01 01.4582  4.276301       0.352652  68.0071  33.3482  15.2679  11.0   4.0
C/2014 W6 Catalina                             2015 03 18.7736  3.095376       1.001546 209.9546 338.1817  53.5164  10.5   4.0
C/2014 W7 Christensen                          2014 12 31.7088  1.488283       0.869467  33.2687 151.2712  98.1706  16.0   4.0
C/2014 W8 PANSTARRS                            2015 09 09.4143  5.023202       0.971142 228.0358 224.8446  41.9479  11.0   4.0
C/2014 W9 PANSTARRS                            2015 02 15.0957  1.595818       0.857647 167.9030  21.3202  10.6229  16.0   4.0
C/2014 W11 PANSTARRS                           2015 06 17.1218  3.425956       0.647855 225.6944 295.8059  12.7546  10.0   4.0
P/2014 W12 Gibbs                               2021 06 19.5948  1.675266       0.523716  36.9249 299.2850   8.5139  15.0   4.0
P/2014 X1 Elenin                               2015 01 04.2497  1.809432       0.708894  34.0675  61.5077  26.0088  15.0   4.0
C/2014 XB8 PANSTARRS                           2015 04 04.7428  3.004550       0.995708 351.3392  37.5027 149.7870  13.5   4.0
C/2014 Y1 PANSTARRS                            2016 01 17.3018  2.247866       1.001813 182.3439  19.4958  14.9238   9.5   4.0
C/2015 A1 PANSTARRS                            2015 03 13.3079  1.995872       0.901453 244.9220 341.0543  80.2545  14.5   4.0
C/2015 A2 PANSTARRS                            2015 08 01.8353  5.341055       1.000000 208.8369 258.5042 109.1696  10.5   4.0
P/2015 A3 PANSTARRS                            2015 02 20.1509  1.155485       0.852068 249.2112 277.1602 172.5281  20.0   4.0
P/2015 B1 PANSTARRS                            2015 09 18.8398  5.984234       0.370936 188.6429 353.1559  18.0192   8.5   4.0
C/2015 B2 PANSTARRS                            2016 05 06.4256  3.368016       1.000540 284.7310 341.8890 105.0396   9.5   4.0
P/2015 B4 Lemmon-PANSTARRS                     2015 02 09.2643  3.744289       0.561988 227.5613 266.0268   1.7604  11.0   4.0
P/2015 C1 TOTAS-Gibbs                          2015 04 30.1778  2.896999       0.560573 178.4350 348.8417  13.8819  12.5   4.0
C/2015 C2 SWAN                                 2015 03 04.1119  0.707085       0.998023 333.9969  49.5620  94.4915  14.0   4.0
C/2015 D2 PANSTARRS                            2013 09 27.2589  5.648420       0.559954 292.5873 162.8208  31.9089   8.0   4.0
C/2015 D3 PANSTARRS                            2016 05 03.2251  8.151111       1.003634   3.0030 157.0151 128.5346   5.5   4.0
C/2015 D4 Borisov                              2014 10 28.2283  0.861677       0.989024 314.7346 305.5392  77.3572  12.0   4.0
P/2015 D5 Kowalski                             2014 04 04.4986  4.586650       0.489652  40.0516  74.0610  20.4932   9.0   4.0
P/2015 D6 Lemmon-PANSTARRS                     2015 07 09.4738  4.561043       0.363124 125.3738  46.1884  20.2192  10.5   4.0
C/2015 ER61 PANSTARRS                          2017 05 10.1102  1.041498       0.997584  68.1927 235.2187   6.3492  11.0   2.0
C/2015 E61-B PANSTARRS                         2017 05 10.0878  1.043215       0.998943  68.2820 235.2538   6.3508  13.5   2.0
P/2015 F1 PANSTARRS                            2021 10 27.0032  2.543012       0.278421 187.3635  40.4190   2.8031  12.5   4.0
C/2015 F2 Polonia                              2015 04 29.3661  1.211960       0.968933 352.1867 262.4420  28.7321  16.5   4.0
C/2015 F3 SWAN                                 2015 03 07.8640  0.834411       0.995435  57.4670  31.6718  73.4739  14.5   4.0
C/2015 F4 Jacques                              2015 08 11.3764  1.640311       0.985820  36.3102 285.9207  48.7925  11.0   4.0
C/2015 F5 SWAN-Xingming                        2015 03 27.9816  0.348639       0.977579  13.4607 287.7504 149.3563  15.5   4.0
C/2015 GX PANSTARRS                            2015 08 27.2294  1.965147       0.878490 108.8546 235.5241  90.2750  14.0   4.0
C/2015 G2 MASTER                               2015 05 24.2327  0.781176       1.000556 257.6485 110.2179 147.6494  11.0   4.0
C/2015 H1 Bressi                               2015 03 27.2757  1.934907       0.939485  21.9020 325.8672 140.6410  13.5   4.0
C/2015 H2 PANSTARRS                            2016 09 13.9643  4.969948       1.005163 287.9780 350.6974  33.6844   7.5   4.0
P/2015 HG16 PANSTARRS                          2014 06 24.4084  3.108086       0.346995  47.2993  59.3115  18.8823  12.5   4.0
C/2015 J1 PANSTARRS                            2014 06 29.0299  6.033696       1.000310 315.5857 220.0026  94.9974   8.5   4.0
C/2015 J2 PANSTARRS                            2015 09 09.8966  4.326705       0.984957 203.8472  56.7353  17.2783  10.0   4.0
P/2015 J3 NEOWISE                              2021 04 21.9659  1.492184       0.554592 129.4105 111.3537   8.1298  16.5   4.0
C/2015 K1 MASTER                               2014 10 14.5866  2.554493       0.986684 280.2436   5.1117  29.3506   9.0   4.0
C/2015 K2 PANSTARRS                            2015 06 09.1016  1.459518       0.995122  15.9044 223.6975  29.1087  20.0   4.0
C/2015 K4 PANSTARRS                            2015 05 01.8322  2.014284       1.000715 357.6811 250.7131  80.2787  15.0   4.0
P/2015 K5 PANSTARRS                            2015 06 06.9226  2.990985       0.554505 106.2068 134.2140  39.9523  13.5   4.0
C/2015 LC2 PANSTARRS                           2015 05 02.1572  5.901825       1.000267 341.9866 223.5766  93.7147   8.0   4.0
C/2015 M1 PANSTARRS                            2015 05 15.9265  2.095004       0.995136 164.1170 100.1819  57.3270  16.5   4.0
P/2015 M2 PANSTARRS                            2015 09 03.1618  5.912545       0.180824 224.9882  86.5764   3.9738   8.5   4.0
C/2015 M3 PANSTARRS                            2015 08 26.4198  3.554299       0.974266 123.8218 143.0416  65.8941  12.0   4.0
C/2015 O1 PANSTARRS                            2018 02 19.1536  3.730079       1.000135  89.6144 299.8538 127.2159   6.5   4.0
C/2015 P3 SWAN                                 2015 07 27.6907  0.719011       0.997074 133.0534  87.9845  58.2025  15.5   4.0
P/2015 P4 PANSTARRS                            2016 01 18.6160  2.521115       0.583654 280.6562 104.7613   8.7175  14.0   4.0
P/2015 PD229 Cameron-ISON                      2015 08 13.4689  4.825998       0.327585 352.2837 342.6816   2.0256  11.5   2.0
P/2015 Q1 Scotti                               2022 02 13.2579  1.802224       0.479945 199.8967 203.1496  22.4550  14.0   4.0
P/2015 Q2 Pimentel                             2015 09 07.1037  1.823823       0.751658 244.3750 228.3576 146.4553  15.5   4.0
P/2015 R1 PANSTARRS                            2015 06 26.0921  2.158022       0.633176 300.3751  48.5095  22.6722  14.0   4.0
P/2015 R2 PANSTARRS                            2015 06 09.7775  2.460228       0.452151 149.6724 168.6310  15.4657  14.5   4.0
C/2015 R3 PANSTARRS                            2014 02 13.2303  4.896902       1.000056 271.9994  36.3998  83.6121  10.0   4.0
C/2015 T2 PANSTARRS                            2017 05 19.3897  6.934008       0.998426  30.6942  51.0592 124.5491   8.0   4.0
P/2015 T3 PANSTARRS                            2014 12 21.7057  2.127698       0.508181 178.6330 120.5019  13.0937  14.0   4.0
C/2015 T4 PANSTARRS                            2016 06 18.0395  2.295666       0.971799 270.0598 251.7963  87.9582  11.0   4.0
C/2015 T5 Sheppard-Tholen                      2016 01 21.4090  9.333266       0.666609  61.7738 311.0956  11.0478   7.5   4.0
P/2015 TO19 Lemmon-PANSTARRS                   2016 03 06.0155  2.927986       0.357732  89.2642 321.6386   6.4991  14.0   4.0
P/2015 TP200 LINEAR                            2016 10 27.9635  3.387961       0.535170  82.7796   6.9765   8.7714  11.0   4.0
